[{"OBJECT_NAME":"STARLINK-35723","OBJECT_ID":"2025-244F","EPOCH":"2026-03-09T18:06:15.387264","MEAN_MOTION":15.30210282,"ECCENTRICITY":0.00013227,"INCLINATION":53.1584,"RA_OF_ASC_NODE":229.3139,"ARG_OF_PERICENTER":85.1641,"MEAN_ANOMALY":274.9511,"EPHEMERIS_TYPE":0,"CLASSIFICATION_TYPE":"U","NORAD_CAT_ID":66211,"ELEMENT_SET_NO":999,"REV_AT_EPOCH":2166,"BSTAR":0.0010713325,"MEAN_MOTION_DOT":0.00031515,"MEAN_MOTION_DDOT":0},{"OBJECT_NAME":"CZ-4C R\/B","OBJECT_ID":"2022-069B","EPOCH":"2026-03-09T22:08:25.149120","MEAN_MOTION":15.31915595,"ECCENTRICITY":0.00471341,"INCLINATION":97.9961,"RA_OF_ASC_NODE":42.6953,"ARG_OF_PERICENTER":87.2467,"MEAN_ANOMALY":273.4166,"EPHEMERIS_TYPE":0,"CLASSIFICATION_TYPE":"U","NORAD_CAT_ID":52913,"ELEMENT_SET_NO":999,"REV_AT_EPOCH":20482,"BSTAR":0.00043675127,"MEAN_MOTION_DOT":0.00013855,"MEAN_MOTION_DDOT":0}]
